[
    {
        "Altitude(m)": 703263.0701037593,
        "Argument of Periapsis(deg)": 0.0,
        "Eccentricity": 0.0,
        "Inclination(deg)": 45.0,
        "Latitude(deg)": 22.545819472494156,
        "Longitude(deg)": 155.64247473196826,
        "Mean Anomaly(deg)": 147.2727,
        "RAAN(deg)": 100.0,
        "Satellite Name": "Constellation 1 449",
        "Satellite Number": 449,
        "Semi-Major Axis(m)": 7083131.272910544,
        "Time(s)": 0
    },
    {
        "Altitude(m)": 703258.9622315743,
        "Argument of Periapsis(deg)": 5.994800624540561e-05,
        "Eccentricity": 0.0,
        "Inclination(deg)": 45.0,
        "Latitude(deg)": 22.5064924740243,
        "Longitude(deg)": 155.6885656321966,
        "Mean Anomaly(deg)": 147.3334011402499,
        "RAAN(deg)": 99.99994341083443,
        "Satellite Name": "Constellation 1 449",
        "Satellite Number": 449,
        "Semi-Major Axis(m)": 7083131.272910544,
        "Time(s)": 1
    },
    {
        "Altitude(m)": 703254.8661859087,
        "Argument of Periapsis(deg)": 0.00011989601249081122,
        "Eccentricity": 0.0,
        "Inclination(deg)": 45.0,
        "Latitude(deg)": 22.467149666502557,
        "Longitude(deg)": 155.73462814707966,
        "Mean Anomaly(deg)": 147.39410228049982,
        "RAAN(deg)": 99.99988682166885,
        "Satellite Name": "Constellation 1 449",
        "Satellite Number": 449,
        "Semi-Major Axis(m)": 7083131.272910544,
        "Time(s)": 2
    },
    {
        "Altitude(m)": 703250.7820013098,
        "Argument of Periapsis(deg)": 0.00017984401873621686,
        "Eccentricity": 0.0,
        "Inclination(deg)": 45.0,
        "Latitude(deg)": 22.427791089164653,
        "Longitude(deg)": 155.78066233634243,
        "Mean Anomaly(deg)": 147.45480342074964,
        "RAAN(deg)": 99.9998302325033,
        "Satellite Name": "Constellation 1 449",
        "Satellite Number": 449,
        "Semi-Major Axis(m)": 7083131.272910544,
        "Time(s)": 3
    },
    {
        "Altitude(m)": 703246.7097122873,
        "Argument of Periapsis(deg)": 0.00023979202498162244,
        "Eccentricity": 0.0,
        "Inclination(deg)": 45.0,
        "Latitude(deg)": 22.388416781190493,
        "Longitude(deg)": 155.82666825968943,
        "Mean Anomaly(deg)": 147.51550456099955,
        "RAAN(deg)": 99.99977364333773,
        "Satellite Name": "Constellation 1 449",
        "Satellite Number": 449,
        "Semi-Major Axis(m)": 7083131.272910544,
        "Time(s)": 4
    },
    {
        "Altitude(m)": 703242.6493532923,
        "Argument of Periapsis(deg)": 0.00029974003122702807,
        "Eccentricity": 0.0,
        "Inclination(deg)": 45.0,
        "Latitude(deg)": 22.349026781704218,
        "Longitude(deg)": 155.8726459768044,
        "Mean Anomaly(deg)": 147.57620570124948,
        "RAAN(deg)": 99.99971705417215,
        "Satellite Name": "Constellation 1 449",
        "Satellite Number": 449,
        "Semi-Major Axis(m)": 7083131.272910544,
        "Time(s)": 5
    },
    {
        "Altitude(m)": 703238.6009587547,
        "Argument of Periapsis(deg)": 0.00035968803747243373,
        "Eccentricity": 0.0,
        "Inclination(deg)": 45.0,
        "Latitude(deg)": 22.30962112977461,
        "Longitude(deg)": 155.91859554735004,
        "Mean Anomaly(deg)": 147.6369068414994,
        "RAAN(deg)": 99.99966046500658,
        "Satellite Name": "Constellation 1 449",
        "Satellite Number": 449,
        "Semi-Major Axis(m)": 7083131.272910544,
        "Time(s)": 6
    },
    {
        "Altitude(m)": 703234.5645630364,
        "Argument of Periapsis(deg)": 0.00041963604371783933,
        "Eccentricity": 0.0,
        "Inclination(deg)": 45.0,
        "Latitude(deg)": 22.2701998644149,
        "Longitude(deg)": 155.96451686287125,
        "Mean Anomaly(deg)": 147.69760798174926,
        "RAAN(deg)": 99.999603875841,
        "Satellite Name": "Constellation 1 449",
        "Satellite Number": 449,
        "Semi-Major Axis(m)": 7083131.272910544,
        "Time(s)": 7
    },
    {
        "Altitude(m)": 703230.5402004758,
        "Argument of Periapsis(deg)": 0.0004795840499632449,
        "Eccentricity": 0.0,
        "Inclination(deg)": 45.0,
        "Latitude(deg)": 22.230763024582362,
        "Longitude(deg)": 156.0104103191827,
        "Mean Anomaly(deg)": 147.7583091219992,
        "RAAN(deg)": 99.99954728667544,
        "Satellite Name": "Constellation 1 449",
        "Satellite Number": 449,
        "Semi-Major Axis(m)": 7083131.272910544,
        "Time(s)": 8
    },
    {
        "Altitude(m)": 703226.5279053652,
        "Argument of Periapsis(deg)": 0.0005395320562086505,
        "Eccentricity": 0.0,
        "Inclination(deg)": 45.0,
        "Latitude(deg)": 22.19131064917976,
        "Longitude(deg)": 156.05627580778656,
        "Mean Anomaly(deg)": 147.81901026224904,
        "RAAN(deg)": 99.99949069750986,
        "Satellite Name": "Constellation 1 449",
        "Satellite Number": 449,
        "Semi-Major Axis(m)": 7083131.272910544,
        "Time(s)": 9
    },
    {
        "Altitude(m)": 703222.5277119417,
        "Argument of Periapsis(deg)": 0.0005994800624540561,
        "Eccentricity": 0.0,
        "Inclination(deg)": 45.0,
        "Latitude(deg)": 22.151842777054462,
        "Longitude(deg)": 156.10211338826053,
        "Mean Anomaly(deg)": 147.879711402499,
        "RAAN(deg)": 99.9994341083443,
        "Satellite Name": "Constellation 1 449",
        "Satellite Number": 449,
        "Semi-Major Axis(m)": 7083131.272910544,
        "Time(s)": 10
    },
    {
        "Altitude(m)": 703218.5396544083,
        "Argument of Periapsis(deg)": 0.0006594280686994618,
        "Eccentricity": 0.0,
        "Inclination(deg)": 45.0,
        "Latitude(deg)": 22.112359446998777,
        "Longitude(deg)": 156.14792312016058,
        "Mean Anomaly(deg)": 147.9404125427489,
        "RAAN(deg)": 99.99937751917874,
        "Satellite Name": "Constellation 1 449",
        "Satellite Number": 449,
        "Semi-Major Axis(m)": 7083131.272910544,
        "Time(s)": 11
    },
    {
        "Altitude(m)": 703214.5637669282,
        "Argument of Periapsis(deg)": 0.0007193760749448675,
        "Eccentricity": 0.0,
        "Inclination(deg)": 45.0,
        "Latitude(deg)": 22.07286069775015,
        "Longitude(deg)": 156.19370506302084,
        "Mean Anomaly(deg)": 148.00111368299872,
        "RAAN(deg)": 99.99932093001317,
        "Satellite Name": "Constellation 1 449",
        "Satellite Number": 449,
        "Semi-Major Axis(m)": 7083131.272910544,
        "Time(s)": 12
    },
    {
        "Altitude(m)": 703210.6000836119,
        "Argument of Periapsis(deg)": 0.000779324081190273,
        "Eccentricity": 0.0,
        "Inclination(deg)": 45.0,
        "Latitude(deg)": 22.033346567991156,
        "Longitude(deg)": 156.23945927635347,
        "Mean Anomaly(deg)": 148.06181482324865,
        "RAAN(deg)": 99.99926434084759,
        "Satellite Name": "Constellation 1 449",
        "Satellite Number": 449,
        "Semi-Major Axis(m)": 7083131.272910544,
        "Time(s)": 13
    },
    {
        "Altitude(m)": 703206.6486385276,
        "Argument of Periapsis(deg)": 0.0008392720874356787,
        "Eccentricity": 0.0,
        "Inclination(deg)": 45.0,
        "Latitude(deg)": 21.993817096349666,
        "Longitude(deg)": 156.28518581964858,
        "Mean Anomaly(deg)": 148.12251596349859,
        "RAAN(deg)": 99.99920775168202,
        "Satellite Name": "Constellation 1 449",
        "Satellite Number": 449,
        "Semi-Major Axis(m)": 7083131.272910544,
        "Time(s)": 14
    },
    {
        "Altitude(m)": 703202.7094657012,
        "Argument of Periapsis(deg)": 0.0008992200936810842,
        "Eccentricity": 0.0,
        "Inclination(deg)": 45.0,
        "Latitude(deg)": 21.954272321399415,
        "Longitude(deg)": 156.3308845842766,
        "Mean Anomaly(deg)": 148.18321710374846,
        "RAAN(deg)": 99.99915116251645,
        "Satellite Name": "Constellation 1 449",
        "Satellite Number": 449,
        "Semi-Major Axis(m)": 7083131.272910544,
        "Time(s)": 15
    },
    {
        "Altitude(m)": 703198.7825991114,
        "Argument of Periapsis(deg)": 0.0009591680999264898,
        "Eccentricity": 0.0,
        "Inclination(deg)": 45.0,
        "Latitude(deg)": 21.914712281658637,
        "Longitude(deg)": 156.3765559658771,
        "Mean Anomaly(deg)": 148.2439182439984,
        "RAAN(deg)": 99.99909457335089,
        "Satellite Name": "Constellation 1 449",
        "Satellite Number": 449,
        "Semi-Major Axis(m)": 7083131.272910544,
        "Time(s)": 16
    },
    {
        "Altitude(m)": 703194.8680726999,
        "Argument of Periapsis(deg)": 0.0010191161061718953,
        "Eccentricity": 0.0,
        "Inclination(deg)": 45.0,
        "Latitude(deg)": 21.87513701559227,
        "Longitude(deg)": 156.42219985577546,
        "Mean Anomaly(deg)": 148.30461938424827,
        "RAAN(deg)": 99.99903798418532,
        "Satellite Name": "Constellation 1 449",
        "Satellite Number": 449,
        "Semi-Major Axis(m)": 7083131.272910544,
        "Time(s)": 17
    },
    {
        "Altitude(m)": 703190.9659203473,
        "Argument of Periapsis(deg)": 0.001079064112417301,
        "Eccentricity": 0.0,
        "Inclination(deg)": 45.0,
        "Latitude(deg)": 21.83554656161046,
        "Longitude(deg)": 156.46781631337177,
        "Mean Anomaly(deg)": 148.36532052449815,
        "RAAN(deg)": 99.99898139501974,
        "Satellite Name": "Constellation 1 449",
        "Satellite Number": 449,
        "Semi-Major Axis(m)": 7083131.272910544,
        "Time(s)": 18
    }
]